{
  "norad_id": 66078,
  "name": "STARLINK-35116",
  "history": [
    {
      "epoch": "2026-03-28T21:31:36.735744Z",
      "apogee_km": 476.35148322342593,
      "perigee_km": 474.05698457831477,
      "latitude_deg": -2.7331776264850593e-05,
      "longitude_deg": 6.732000932140334,
      "height_km": 475.9751630168755,
      "semi_major_axis_km": 6853.34123390087,
      "eccentricity": 0.0001674,
      "inclination_deg": 53.1597,
      "raan_deg": 155.9459,
      "arg_perigee_deg": 83.6659,
      "mean_anomaly_deg": 276.4532,
      "mean_motion_rev_day": 15.30203629
    }
  ]
}